FLOCK 4G-36             
1 62675U 25009BU  26068.70726311  .00013573  00000+0  51122-3 0  9993
2 62675  97.4053 151.0513 0003474 324.2456  35.8550 15.27209548 63701
STARLINK-32761          
1 62749U 25014Q   26068.26035100  .00025943  00000+0  94874-3 0  9996
2 62749  42.9943 160.1054 0002342 141.6220 218.4799 15.27586993 63155
